start=new Date('2023-03-25T00:00:00.000Z').valueOf();
sats=[{"RA_OF_ASC_NODE":"99.8114","APOAPSIS":"574.117","FILE":"3870109","MEAN_MOTION_DDOT":"0.0000000000000","REV_AT_EPOCH":"8506","REF_FRAME":"TEME","NORAD_CAT_ID":"49135","COUNTRY_CODE":"US","RCS_SIZE":"LARGE","SEMIMAJOR_AXIS":"6950.176","OBJECT_TYPE":"PAYLOAD","OBJECT_ID":"2021-082F","EPOCH":"2023-03-24T18:43:37.657344","ECCENTRICITY":"0.00029860","TLE_LINE1":"1 49135U 21082F   23083.78029696  .00000961  00000-0  88342-4 0  9993","ELEMENT_SET_NO":"999","MEAN_ELEMENT_THEORY":"SGP4","EPHEMERIS_TYPE":"0","MEAN_MOTION":"14.98335403","CLASSIFICATION_TYPE":"U","CENTER_NAME":"EARTH","DECAY_DATE":null,"ARG_OF_PERICENTER":"275.4282","BSTAR":"0.00008834200000","GP_ID":"228822322","OBJECT_NAME":"STARLINK-3073","INCLINATION":"69.9986","LAUNCH_DATE":"2021-09-14","SITE":"AFWTR","TIME_SYSTEM":"UTC","PERIOD":"96.107","MEAN_ANOMALY":"84.6536","MEAN_MOTION_DOT":"0.00000961","PERIAPSIS":"569.966","TLE_LINE2":"2 49135  69.9986  99.8114 0002986 275.4282  84.6536 14.98335403 85069"},{"TIME_SYSTEM":"UTC","MEAN_MOTION_DOT":"0.00000866","PERIAPSIS":"570.516","TLE_LINE2":"2 49136  70.0021 119.6631 0002210 293.7335  66.3592 14.98331904 84587","MEAN_ANOMALY":"66.3592","PERIOD":"96.107","ARG_OF_PERICENTER":"293.7335","DECAY_DATE":null,"LAUNCH_DATE":"2021-09-14","SITE":"AFWTR","GP_ID":"228821076","OBJECT_NAME":"STARLINK-3084","INCLINATION":"70.0021","BSTAR":"0.00008036000000","MEAN_MOTION":"14.98331904","EPHEMERIS_TYPE":"0","ELEMENT_SET_NO":"999","MEAN_ELEMENT_THEORY":"SGP4","TLE_LINE1":"1 49136U 21082G   23083.84096571  .00000866  00000-0  80360-4 0  9993","CENTER_NAME":"EARTH","CLASSIFICATION_TYPE":"U","REF_FRAME":"TEME","NORAD_CAT_ID":"49136","MEAN_MOTION_DDOT":"0.0000000000000","REV_AT_EPOCH":"8458","FILE":"3870109","APOAPSIS":"573.588","RA_OF_ASC_NODE":"119.6631","EPOCH":"2023-03-24T20:10:59.437344","ECCENTRICITY":"0.00022100","OBJECT_TYPE":"PAYLOAD","OBJECT_ID":"2021-082G","RCS_SIZE":"LARGE","SEMIMAJOR_AXIS":"6950.187","COUNTRY_CODE":"US"},{"OBJECT_TYPE":"PAYLOAD","OBJECT_ID":"2021-082H","EPOCH":"2023-03-24T20:04:06.921408","ECCENTRICITY":"0.00023150","COUNTRY_CODE":"US","RCS_SIZE":"LARGE","SEMIMAJOR_AXIS":"6950.172","REV_AT_EPOCH":"8457","MEAN_MOTION_DDOT":"0.0000000000000","REF_FRAME":"TEME","NORAD_CAT_ID":"49137","RA_OF_ASC_NODE":"119.6739","APOAPSIS":"573.646","FILE":"3870109","CENTER_NAME":"EARTH","CLASSIFICATION_TYPE":"U","EPHEMERIS_TYPE":"0","MEAN_MOTION":"14.98336758","TLE_LINE1":"1 49137U 21082H   23083.83619122 -.00000147  00000-0 -45612-5 0  9992","MEAN_ELEMENT_THEORY":"SGP4","ELEMENT_SET_NO":"999","LAUNCH_DATE":"2021-09-14","SITE":"AFWTR","BSTAR":"-0.00000456120000","GP_ID":"228821826","INCLINATION":"70.0015","OBJECT_NAME":"STARLINK-3055","ARG_OF_PERICENTER":"281.8132","DECAY_DATE":null,"MEAN_ANOMALY":"78.2767","MEAN_MOTION_DOT":"-0.00000147","PERIAPSIS":"570.428","TLE_LINE2":"2 49137  70.0015 119.6739 0002315 281.8132  78.2767 14.98336758 84576","PERIOD":"96.107","TIME_SYSTEM":"UTC"},{"PERIOD":"96.107","MEAN_ANOMALY":"95.4128","TLE_LINE2":"2 49138  70.0008 139.5924 0002539 264.6742  95.4128 14.98336179 84085","MEAN_MOTION_DOT":"-0.00000931","PERIAPSIS":"570.274","TIME_SYSTEM":"UTC","BSTAR":"-0.00007024300000","GP_ID":"228822078","INCLINATION":"70.0008","OBJECT_NAME":"STARLINK-3058","SITE":"AFWTR","LAUNCH_DATE":"2021-09-14","DECAY_DATE":null,"ARG_OF_PERICENTER":"264.6742","CLASSIFICATION_TYPE":"U","CENTER_NAME":"EARTH","TLE_LINE1":"1 49138U 21082J   23083.86823954 -.00000931  00000-0 -70243-4 0  9994","ELEMENT_SET_NO":"999","MEAN_ELEMENT_THEORY":"SGP4","MEAN_MOTION":"14.98336179","EPHEMERIS_TYPE":"0","COUNTRY_CODE":"US","RCS_SIZE":"LARGE","SEMIMAJOR_AXIS":"6950.174","OBJECT_ID":"2021-082J","OBJECT_TYPE":"PAYLOAD","ECCENTRICITY":"0.00025390","EPOCH":"2023-03-24T20:50:15.896256","APOAPSIS":"573.803","RA_OF_ASC_NODE":"139.5924","FILE":"3870109","REV_AT_EPOCH":"8408","MEAN_MOTION_DDOT":"0.0000000000000","NORAD_CAT_ID":"49138","REF_FRAME":"TEME"},{"GP_ID":"228822822","OBJECT_NAME":"STARLINK-3057","INCLINATION":"69.9983","BSTAR":"0.00001750800000","SITE":"AFWTR","LAUNCH_DATE":"2021-09-14","DECAY_DATE":null,"ARG_OF_PERICENTER":"268.2592","PERIOD":"96.107","TLE_LINE2":"2 49139  69.9983  99.8359 0002905 268.2592  91.8235 14.98328363 85058","PERIAPSIS":"570.044","MEAN_MOTION_DOT":"0.00000116","MEAN_ANOMALY":"91.8235","TIME_SYSTEM":"UTC","RCS_SIZE":"LARGE","SEMIMAJOR_AXIS":"6950.198","COUNTRY_CODE":"US","ECCENTRICITY":"0.00029050","EPOCH":"2023-03-24T18:29:53.972448","OBJECT_ID":"2021-082K","OBJECT_TYPE":"PAYLOAD","FILE":"3870109","RA_OF_ASC_NODE":"99.8359","APOAPSIS":"574.082","NORAD_CAT_ID":"49139","REF_FRAME":"TEME","REV_AT_EPOCH":"8505","MEAN_MOTION_DDOT":"0.0000000000000","CLASSIFICATION_TYPE":"U","CENTER_NAME":"EARTH","MEAN_ELEMENT_THEORY":"SGP4","ELEMENT_SET_NO":"999","TLE_LINE1":"1 49139U 21082K   23083.77076357  .00000116  00000-0  17508-4 0  9990","EPHEMERIS_TYPE":"0","MEAN_MOTION":"14.98328363"},{"ARG_OF_PERICENTER":"273.6099","DECAY_DATE":null,"LAUNCH_DATE":"2021-09-14","SITE":"AFWTR","INCLINATION":"69.9981","GP_ID":"228821576","OBJECT_NAME":"STARLINK-3118","BSTAR":"0.00038829000000","TIME_SYSTEM":"UTC","PERIAPSIS":"570.094","MEAN_MOTION_DOT":"0.00004541","TLE_LINE2":"2 49140  69.9981  99.8625 0002881 273.6099  86.4731 14.98317534 85058","MEAN_ANOMALY":"86.4731","PERIOD":"96.108","REF_FRAME":"TEME","NORAD_CAT_ID":"49140","MEAN_MOTION_DDOT":"0.0000000000000","REV_AT_EPOCH":"8505","FILE":"3870109","RA_OF_ASC_NODE":"99.8625","APOAPSIS":"574.099","EPOCH":"2023-03-24T18:16:09.840864","ECCENTRICITY":"0.00028810","OBJECT_TYPE":"PAYLOAD","OBJECT_ID":"2021-082L","SEMIMAJOR_AXIS":"6950.231","RCS_SIZE":"LARGE","COUNTRY_CODE":"US","MEAN_MOTION":"14.98317534","EPHEMERIS_TYPE":"0","ELEMENT_SET_NO":"999","MEAN_ELEMENT_THEORY":"SGP4","TLE_LINE1":"1 49140U 21082L   23083.76122501  .00004541  00000-0  38829-3 0  9998","CENTER_NAME":"EARTH","CLASSIFICATION_TYPE":"U"},{"APOAPSIS":"573.619","RA_OF_ASC_NODE":"139.6069","FILE":"3870109","REV_AT_EPOCH":"8528","MEAN_MOTION_DDOT":"0.0000000000000","REF_FRAME":"TEME","NORAD_CAT_ID":"49141","COUNTRY_CODE":"US","RCS_SIZE":"LARGE","SEMIMAJOR_AXIS":"6950.203","OBJECT_TYPE":"PAYLOAD","OBJECT_ID":"2021-082M","EPOCH":"2023-03-24T20:43:24.820608","ECCENTRICITY":"0.00022310","TLE_LINE1":"1 49141U 21082M   23083.86348172  .00000684  00000-0  65078-4 0  9995","MEAN_ELEMENT_THEORY":"SGP4","ELEMENT_SET_NO":"999","MEAN_MOTION":"14.98326695","EPHEMERIS_TYPE":"0","CLASSIFICATION_TYPE":"U","CENTER_NAME":"EARTH","DECAY_DATE":null,"ARG_OF_PERICENTER":"268.7914","BSTAR":"0.00006507800000","GP_ID":"228821327","OBJECT_NAME":"STARLINK-3093","INCLINATION":"70.0009","LAUNCH_DATE":"2021-09-14","SITE":"AFWTR","TIME_SYSTEM":"UTC","PERIOD":"96.107","MEAN_ANOMALY":"91.2990","PERIAPSIS":"570.518","MEAN_MOTION_DOT":"0.00000684","TLE_LINE2":"2 49141  70.0009 139.6069 0002231 268.7914  91.2990 14.98326695 85282"},{"CLASSIFICATION_TYPE":"U","CENTER_NAME":"EARTH","TLE_LINE1":"1 49142U 21082N   23083.75645439  .00000302  00000-0  33098-4 0  9994","MEAN_ELEMENT_THEORY":"SGP4","ELEMENT_SET_NO":"999","MEAN_MOTION":"14.98332154","EPHEMERIS_TYPE":"0","COUNTRY_CODE":"US","RCS_SIZE":"LARGE","SEMIMAJOR_AXIS":"6950.186","OBJECT_ID":"2021-082N","OBJECT_TYPE":"PAYLOAD","ECCENTRICITY":"0.00029060","EPOCH":"2023-03-24T18:09:17.659296","RA_OF_ASC_NODE":"99.8706","APOAPSIS":"574.071","FILE":"3870109","REV_AT_EPOCH":"8505","MEAN_MOTION_DDOT":"0.0000000000000","NORAD_CAT_ID":"49142","REF_FRAME":"TEME","PERIOD":"96.107","MEAN_ANOMALY":"90.4072","TLE_LINE2":"2 49142  69.9986  99.8706 0002906 269.6754  90.4072 14.98332154 85054","PERIAPSIS":"570.032","MEAN_MOTION_DOT":"0.00000302","TIME_SYSTEM":"UTC","BSTAR":"0.00003309800000","GP_ID":"228822578","OBJECT_NAME":"STARLINK-3042","INCLINATION":"69.9986","SITE":"AFWTR","LAUNCH_DATE":"2021-09-14","DECAY_DATE":null,"ARG_OF_PERICENTER":"269.6754"},{"CLASSIFICATION_TYPE":"U","CENTER_NAME":"EARTH","TLE_LINE1":"1 49143U 21082P   23083.83143572  .00000239  00000-0  27853-4 0  9996","ELEMENT_SET_NO":"999","MEAN_ELEMENT_THEORY":"SGP4","MEAN_MOTION":"14.98325321","EPHEMERIS_TYPE":"0","COUNTRY_CODE":"US","SEMIMAJOR_AXIS":"6950.207","RCS_SIZE":"LARGE","OBJECT_TYPE":"PAYLOAD","OBJECT_ID":"2021-082P","EPOCH":"2023-03-24T19:57:16.046208","ECCENTRICITY":"0.00020470","APOAPSIS":"573.495","RA_OF_ASC_NODE":"119.6870","FILE":"3870109","MEAN_MOTION_DDOT":"0.0000000000000","REV_AT_EPOCH":"8568","REF_FRAME":"TEME","NORAD_CAT_ID":"49143","PERIOD":"96.107","MEAN_ANOMALY":"86.5353","MEAN_MOTION_DOT":"0.00000239","PERIAPSIS":"570.650","TLE_LINE2":"2 49143  70.0025 119.6870 0002047 273.5572  86.5353 14.98325321 85688","TIME_SYSTEM":"UTC","BSTAR":"0.00002785300000","OBJECT_NAME":"STARLINK-3109","GP_ID":"228822323","INCLINATION":"70.0025","LAUNCH_DATE":"2021-09-14","SITE":"AFWTR","DECAY_DATE":null,"ARG_OF_PERICENTER":"273.5572"},{"GP_ID":"228821077","OBJECT_NAME":"STARLINK-3100","INCLINATION":"70.0012","BSTAR":"-0.00022979000000","LAUNCH_DATE":"2021-09-14","SITE":"AFWTR","DECAY_DATE":null,"ARG_OF_PERICENTER":"271.1787","PERIOD":"96.107","PERIAPSIS":"570.050","MEAN_MOTION_DOT":"-0.00002833","TLE_LINE2":"2 49144  70.0012 139.6181 0002901 271.1787  88.9040 14.98327291 84083","MEAN_ANOMALY":"88.9040","TIME_SYSTEM":"UTC","RCS_SIZE":"LARGE","SEMIMAJOR_AXIS":"6950.201","COUNTRY_CODE":"US","EPOCH":"2023-03-24T20:36:32.415264","ECCENTRICITY":"0.00029010","OBJECT_TYPE":"PAYLOAD","OBJECT_ID":"2021-082Q","FILE":"3870109","APOAPSIS":"574.083","RA_OF_ASC_NODE":"139.6181","REF_FRAME":"TEME","NORAD_CAT_ID":"49144","REV_AT_EPOCH":"8408","MEAN_MOTION_DDOT":"0.0000000000000","CLASSIFICATION_TYPE":"U","CENTER_NAME":"EARTH","ELEMENT_SET_NO":"999","MEAN_ELEMENT_THEORY":"SGP4","TLE_LINE1":"1 49144U 21082Q   23083.85870851 -.00002833  00000-0 -22979-3 0  9993","MEAN_MOTION":"14.98327291","EPHEMERIS_TYPE":"0"}];
